[{"ORDINAL":"1","COMMENT":"GENERATED VIA SPACETRACK.ORG API","ORIGINATOR":"JSPOC","NORAD_CAT_ID":"18337","OBJECT_NAME":"COSMOS 1878","OBJECT_TYPE":"PAYLOAD","CLASSIFICATION_TYPE":"U","INTLDES":"87074D","EPOCH":"2016-06-22 21:13:40","EPOCH_MICROSECONDS":"18080","MEAN_MOTION":"12.64284397","ECCENTRICITY":"0.0002532","INCLINATION":"82.5704","RA_OF_ASC_NODE":"110.6792","ARG_OF_PERICENTER":"228.8366","MEAN_ANOMALY":"196.6502","EPHEMERIS_TYPE":"0","ELEMENT_SET_NO":"999","REV_AT_EPOCH":"32869","BSTAR":"8.8661e-05","MEAN_MOTION_DOT":"2.7e-07","MEAN_MOTION_DDOT":"0","FILE":"2050368","TLE_LINE0":"0 COSMOS 1878","TLE_LINE1":"1 18337U 87074D   16174.88449095  .00000027  00000-0  88661-4 0  9996","TLE_LINE2":"2 18337  82.5704 110.6792 0002532 228.8366 196.6502 12.64284397328696","OBJECT_ID":"1987-074D","OBJECT_NUMBER":"18337","SEMIMAJOR_AXIS":"7783.447","PERIOD":"113.898","APOGEE":"1407.283","PERIGEE":"1403.341"},{"ORDINAL":"1","COMMENT":"GENERATED VIA SPACETRACK.ORG API","ORIGINATOR":"JSPOC","NORAD_CAT_ID":"18338","OBJECT_NAME":"COSMOS 1879","OBJECT_TYPE":"PAYLOAD","CLASSIFICATION_TYPE":"U","INTLDES":"87074E","EPOCH":"2016-06-23 01:55:32","EPOCH_MICROSECONDS":"785248","MEAN_MOTION":"12.64941671","ECCENTRICITY":"0.000591","INCLINATION":"82.5718","RA_OF_ASC_NODE":"103.5216","ARG_OF_PERICENTER":"217.1573","MEAN_ANOMALY":"277.7272","EPHEMERIS_TYPE":"0","ELEMENT_SET_NO":"999","REV_AT_EPOCH":"32939","BSTAR":"6.6375e-05","MEAN_MOTION_DOT":"2.3e-07","MEAN_MOTION_DDOT":"0","FILE":"2050513","TLE_LINE0":"0 COSMOS 1879","TLE_LINE1":"1 18338U 87074E   16175.08024057  .00000023  00000-0  66375-4 0  9991","TLE_LINE2":"2 18338  82.5718 103.5216 0005910 217.1573 277.7272 12.64941671329396","OBJECT_ID":"1987-074E","OBJECT_NUMBER":"18338","SEMIMAJOR_AXIS":"7780.750","PERIOD":"113.839","APOGEE":"1407.214","PERIGEE":"1398.017"},{"ORDINAL":"1","COMMENT":"GENERATED VIA SPACETRACK.ORG API","ORIGINATOR":"JSPOC","NORAD_CAT_ID":"18339","OBJECT_NAME":"COSMOS 1880","OBJECT_TYPE":"PAYLOAD","CLASSIFICATION_TYPE":"U","INTLDES":"87074F","EPOCH":"2016-06-23 05:45:43","EPOCH_MICROSECONDS":"845984","MEAN_MOTION":"12.65452011","ECCENTRICITY":"0.0009344","INCLINATION":"82.5627","RA_OF_ASC_NODE":"88.1726","ARG_OF_PERICENTER":"192.198","MEAN_ANOMALY":"322.3323","EPHEMERIS_TYPE":"0","ELEMENT_SET_NO":"999","REV_AT_EPOCH":"32997","BSTAR":"0.00013507","MEAN_MOTION_DOT":"3.6e-07","MEAN_MOTION_DDOT":"0","FILE":"2050640","TLE_LINE0":"0 COSMOS 1880","TLE_LINE1":"1 18339U 87074F   16175.24009081  .00000036  00000-0  13507-3 0  9992","TLE_LINE2":"2 18339  82.5627  88.1726 0009344 192.1980 322.3323 12.65452011329973","OBJECT_ID":"1987-074F","OBJECT_NUMBER":"18339","SEMIMAJOR_AXIS":"7778.658","PERIOD":"113.793","APOGEE":"1407.792","PERIGEE":"1393.255"},{"ORDINAL":"1","COMMENT":"GENERATED VIA SPACETRACK.ORG API","ORIGINATOR":"JSPOC","NORAD_CAT_ID":"18350","OBJECT_NAME":"OPTUS A3 (AUSSAT 3)","OBJECT_TYPE":"PAYLOAD","CLASSIFICATION_TYPE":"U","INTLDES":"87078A","EPOCH":"2016-06-22 19:52:07","EPOCH_MICROSECONDS":"408992","MEAN_MOTION":"0.98907541","ECCENTRICITY":"0.0005567","INCLINATION":"14.4245","RA_OF_ASC_NODE":"21.8831","ARG_OF_PERICENTER":"264.6158","MEAN_ANOMALY":"301.5368","EPHEMERIS_TYPE":"0","ELEMENT_SET_NO":"999","REV_AT_EPOCH":"10445","BSTAR":"0","MEAN_MOTION_DOT":"-1.08e-06","MEAN_MOTION_DDOT":"0","FILE":"2050353","TLE_LINE0":"0 OPTUS A3 (AUSSAT 3)","TLE_LINE1":"1 18350U 87078A   16174.82786353 -.00000108  00000-0  00000+0 0  9997","TLE_LINE2":"2 18350  14.4245  21.8831 0005567 264.6158 301.5368  0.98907541104450","OBJECT_ID":"1987-078A","OBJECT_NUMBER":"18350","SEMIMAJOR_AXIS":"42551.568","PERIOD":"1455.905","APOGEE":"36197.121","PERIGEE":"36149.744"},{"ORDINAL":"1","COMMENT":"GENERATED VIA SPACETRACK.ORG API","ORIGINATOR":"JSPOC","NORAD_CAT_ID":"18351","OBJECT_NAME":"EUTELSAT 1-F4 (ECS 4)","OBJECT_TYPE":"PAYLOAD","CLASSIFICATION_TYPE":"U","INTLDES":"87078B","EPOCH":"2016-06-22 06:18:27","EPOCH_MICROSECONDS":"980640","MEAN_MOTION":"0.98687699","ECCENTRICITY":"0.0007718","INCLINATION":"15.3465","RA_OF_ASC_NODE":"13.4232","ARG_OF_PERICENTER":"295.449","MEAN_ANOMALY":"284.5034","EPHEMERIS_TYPE":"0","ELEMENT_SET_NO":"999","REV_AT_EPOCH":"9076","BSTAR":"0","MEAN_MOTION_DOT":"0","MEAN_MOTION_DDOT":"0","FILE":"2050785","TLE_LINE0":"0 EUTELSAT 1-F4 (ECS 4)","TLE_LINE1":"1 18351U 87078B   16174.26282385 -.00000000 +00000-0 +00000-0 0  9994","TLE_LINE2":"2 18351 015.3465 013.4232 0007718 295.4490 284.5034 00.98687699090765","OBJECT_ID":"1987-078B","OBJECT_NUMBER":"18351","SEMIMAJOR_AXIS":"42614.738","PERIOD":"1459.148","APOGEE":"36269.493","PERIGEE":"36203.713"},{"ORDINAL":"1","COMMENT":"GENERATED VIA SPACETRACK.ORG API","ORIGINATOR":"JSPOC","NORAD_CAT_ID":"18355","OBJECT_NAME":"COSMOS 1883 (GLONASS)","OBJECT_TYPE":"PAYLOAD","CLASSIFICATION_TYPE":"U","INTLDES":"87079A","EPOCH":"2016-06-22 12:23:22","EPOCH_MICROSECONDS":"689312","MEAN_MOTION":"2.13101102","ECCENTRICITY":"0.0005255","INCLINATION":"65.2434","RA_OF_ASC_NODE":"80.7731","ARG_OF_PERICENTER":"290.2241","MEAN_ANOMALY":"249.3891","EPHEMERIS_TYPE":"0","ELEMENT_SET_NO":"999","REV_AT_EPOCH":"22392","BSTAR":"0","MEAN_MOTION_DOT":"-8e-08","MEAN_MOTION_DDOT":"0","FILE":"2050193","TLE_LINE0":"0 COSMOS 1883 (GLONASS)","TLE_LINE1":"1 18355U 87079A   16174.51623483 -.00000008  00000-0  00000+0 0  9992","TLE_LINE2":"2 18355  65.2434  80.7731 0005255 290.2241 249.3891  2.13101102223926","OBJECT_ID":"1987-079A","OBJECT_NUMBER":"18355","SEMIMAJOR_AXIS":"25508.096","PERIOD":"675.735","APOGEE":"19143.365","PERIGEE":"19116.556"},{"ORDINAL":"1","COMMENT":"GENERATED VIA SPACETRACK.ORG API","ORIGINATOR":"JSPOC","NORAD_CAT_ID":"18356","OBJECT_NAME":"COSMOS 1884 (GLONASS)","OBJECT_TYPE":"PAYLOAD","CLASSIFICATION_TYPE":"U","INTLDES":"87079B","EPOCH":"2016-06-21 15:23:52","EPOCH_MICROSECONDS":"402272","MEAN_MOTION":"2.13102716","ECCENTRICITY":"0.0016779","INCLINATION":"65.2588","RA_OF_ASC_NODE":"81.0623","ARG_OF_PERICENTER":"224.9736","MEAN_ANOMALY":"59.8285","EPHEMERIS_TYPE":"0","ELEMENT_SET_NO":"999","REV_AT_EPOCH":"22393","BSTAR":"0","MEAN_MOTION_DOT":"-1.2e-07","MEAN_MOTION_DDOT":"0","FILE":"2050282","TLE_LINE0":"0 COSMOS 1884 (GLONASS)","TLE_LINE1":"1 18356U 87079B   16173.64157873 -.00000012 +00000-0 +00000-0 0  9997","TLE_LINE2":"2 18356 065.2588 081.0623 0016779 224.9736 059.8285 02.13102716223931","OBJECT_ID":"1987-079B","OBJECT_NUMBER":"18356","SEMIMAJOR_AXIS":"25507.967","PERIOD":"675.730","APOGEE":"19172.632","PERIGEE":"19087.032"},{"ORDINAL":"1","COMMENT":"GENERATED VIA SPACETRACK.ORG API","ORIGINATOR":"JSPOC","NORAD_CAT_ID":"18357","OBJECT_NAME":"COSMOS 1885 (GLONASS)","OBJECT_TYPE":"PAYLOAD","CLASSIFICATION_TYPE":"U","INTLDES":"87079C","EPOCH":"2016-06-23 04:30:11","EPOCH_MICROSECONDS":"608704","MEAN_MOTION":"2.1310344","ECCENTRICITY":"0.0016485","INCLINATION":"65.2572","RA_OF_ASC_NODE":"80.954","ARG_OF_PERICENTER":"209.1507","MEAN_ANOMALY":"257.6239","EPHEMERIS_TYPE":"0","ELEMENT_SET_NO":"999","REV_AT_EPOCH":"20764","BSTAR":"0","MEAN_MOTION_DOT":"-6e-08","MEAN_MOTION_DDOT":"0","FILE":"2050513","TLE_LINE0":"0 COSMOS 1885 (GLONASS)","TLE_LINE1":"1 18357U 87079C   16175.18763436 -.00000006  00000-0  00000+0 0  9999","TLE_LINE2":"2 18357  65.2572  80.9540 0016485 209.1507 257.6239  2.13103440207648","OBJECT_ID":"1987-079C","OBJECT_NUMBER":"18357","SEMIMAJOR_AXIS":"25507.909","PERIOD":"675.728","APOGEE":"19171.824","PERIGEE":"19087.724"},{"ORDINAL":"1","COMMENT":"GENERATED VIA SPACETRACK.ORG API","ORIGINATOR":"JSPOC","NORAD_CAT_ID":"18361","OBJECT_NAME":"OSCAR 27","OBJECT_TYPE":"PAYLOAD","CLASSIFICATION_TYPE":"U","INTLDES":"87080A","EPOCH":"2016-06-22 21:08:07","EPOCH_MICROSECONDS":"190592","MEAN_MOTION":"13.44406738","ECCENTRICITY":"0.0106198","INCLINATION":"90.3391","RA_OF_ASC_NODE":"323.469","ARG_OF_PERICENTER":"49.6754","MEAN_ANOMALY":"311.3612","EPHEMERIS_TYPE":"0","ELEMENT_SET_NO":"999","REV_AT_EPOCH":"41064","BSTAR":"7.4251e-06","MEAN_MOTION_DOT":"1.3e-07","MEAN_MOTION_DDOT":"0","FILE":"2050785","TLE_LINE0":"0 OSCAR 27","TLE_LINE1":"1 18361U 87080A   16174.88063878 +.00000013 +00000-0 +74251-5 0  9997","TLE_LINE2":"2 18361 090.3391 323.4690 0106198 049.6754 311.3612 13.44406738410645","OBJECT_ID":"1987-080A","OBJECT_NUMBER":"18361","SEMIMAJOR_AXIS":"7471.045","PERIOD":"107.110","APOGEE":"1172.251","PERIGEE":"1013.569"},{"ORDINAL":"1","COMMENT":"GENERATED VIA SPACETRACK.ORG API","ORIGINATOR":"JSPOC","NORAD_CAT_ID":"18362","OBJECT_NAME":"OSCAR 29","OBJECT_TYPE":"PAYLOAD","CLASSIFICATION_TYPE":"U","INTLDES":"87080B","EPOCH":"2016-06-22 22:42:55","EPOCH_MICROSECONDS":"523808","MEAN_MOTION":"13.43999944","ECCENTRICITY":"0.0108204","INCLINATION":"90.3395","RA_OF_ASC_NODE":"323.6873","ARG_OF_PERICENTER":"65.0882","MEAN_ANOMALY":"47.3328","EPHEMERIS_TYPE":"0","ELEMENT_SET_NO":"999","REV_AT_EPOCH":"41032","BSTAR":"5.3895e-05","MEAN_MOTION_DOT":"4.1e-07","MEAN_MOTION_DDOT":"0","FILE":"2050785","TLE_LINE0":"0 OSCAR 29","TLE_LINE1":"1 18362U 87080B   16174.94647597 +.00000041 +00000-0 +53895-4 0  9992","TLE_LINE2":"2 18362 090.3395 323.6873 0108204 065.0882 047.3328 13.43999944410329","OBJECT_ID":"1987-080B","OBJECT_NUMBER":"18362","SEMIMAJOR_AXIS":"7472.553","PERIOD":"107.142","APOGEE":"1175.274","PERIGEE":"1013.562"}]